SL-16 R/B               
1 23405U 94077B   26154.48261457 -.00000232  00000+0 -93961-4 0  9996
2 23405  70.9811 171.9949 0002406 336.6536  23.4477 14.15575573628372
ARIANE 40+ R/B          
1 23561U 95021B   26154.65334157  .00000305  00000+0  11111-3 0  9991
2 23561  98.4413 224.9233 0005707 238.3147 240.4022 14.39825550631613
SL-16 R/B               
1 23705U 95058B   26154.63507851 -.00000256  00000+0 -10633-3 0  9997
2 23705  71.0220 359.8132 0013191 338.7041  21.3531 14.15506327580016
SL-16 R/B               
1 24298U 96051B   26154.64643127  .00000142  00000+0  10371-3 0  9998
2 24298  70.7634 353.3077 0014292 357.7856   2.3198 14.12441490533780
ORBVIEW 2 (SEASTAR)     
1 24883U 97037A   26153.31339990  .00000305  00000+0  12218-3 0  9999
2 24883  98.8676 319.9213 0002661 147.3172 212.8178 14.35545182520610
SL-16 R/B               
1 25400U 98043G   26154.47074504  .00000058  00000+0  43381-4 0  9999
2 25400  98.8359 108.5125 0010765 122.3726 237.8497 14.26066141451213
SL-16 R/B               
1 25407U 98045B   26154.60385030  .00000263  00000+0  15697-3 0  9998
2 25407  71.0121   0.8970 0009518 257.0909 102.9152 14.16203048439264
ISS (ZARYA)             
1 25544U 98067A   26154.70949191  .00008646  00000+0  16154-3 0  9991
2 25544  51.6330   6.8180 0007089 128.9940 231.1681 15.49585865569660
CZ-4B R/B               
1 25732U 99025C   26154.60358672  .00000075  00000+0  56936-4 0  9993
2 25732  98.6490 196.7833 0038261  97.6073  17.8789 14.18281041400347
OKEAN-O                 
1 25860U 99039A   26154.62723737  .00000700  00000+0  98371-4 0  9994
2 25860  97.9321 213.5801 0001900  83.1814 276.9614 14.80449753447105
SL-16 R/B               
1 25861U 99039B   26154.79670152  .00000579  00000+0  79973-4 0  9996
2 25861  97.9843 213.6972 0014286 343.4134  16.6609 14.81831243449614
DELTA 2 R/B             
1 25876U 99041E   26154.58569846  .00000736  00000+0  15610-3 0  9991
2 25876  51.7657 318.1284 0501109 241.8141 113.1319 14.11990327375163
HELIOS 1B               
1 25977U 99064A   26154.59499001  .00001675  00000+0  18902-3 0  9994
2 25977  98.1625  59.3409 0002252 109.8238 250.3220 14.87968144698037
TERRA                   
1 25994U 99068A   26154.86758086  .00000441  00000+0  98709-4 0  9992
2 25994  97.9462 204.9413 0000804 267.2150 147.1978 14.61091990407666
SL-16 R/B               
1 26070U 00006B   26154.64155698 -.00000014  00000+0  17310-4 0  9994
2 26070  71.0033 277.1057 0014836  45.0794 315.1530 14.15837347360720
TITAN 4B R/B            
1 26474U 00047B   26154.88012369  .00003314  00000+0  20636-3 0  9999
2 26474  67.9871 158.0274 0045371 300.5363  59.1312 15.10115743405929
ENVISAT                 
1 27386U 02009A   26154.49205816  .00000112  00000+0  49998-4 0  9996
2 27386  98.3829 106.1165 0001331  92.0435  19.9609 14.39061394271518
IDEFIX & ARIANE 42P R/B 
1 27422U 02021B   26154.42578324  .00000267  00000+0  11809-3 0  9991
2 27422  98.5941  92.0582 0010752 298.8139  61.1964 14.31075278256284
AQUA                    
1 27424U 02022A   26154.85148399  .00000900  00000+0  18887-3 0  9993
2 27424  98.4270 123.8686 0001622  57.2494  29.5609 14.62136463281320
CZ-4B R/B               
1 27432U 02024C   26154.60061008  .00000054  00000+0  50611-4 0  9990
2 27432  98.8705 207.5080 0050915 138.1059 342.4620 14.14562167241382
MIDORI II (ADEOS-II)    
1 27597U 02056A   26154.48772052  .00000317  00000+0  14226-3 0  9994
2 27597  98.7872 113.6317 0002177  96.1451 263.9978 14.29341638222559
H-2A R/B                
1 27601U 02056E   26154.48287659  .00000243  00000+0  10004-3 0  9992
2 27601  98.3306 111.6572 0068835 266.0531 202.3504 14.33815770226402
CZ-4B R/B               
1 28059U 03049C   26154.61600001  .00000368  00000+0  96037-4 0  9997
2 28059  98.6894 152.9224 0047503 330.8112  29.0430 14.55090366199097
CZ-2C R/B               
1 28222U 04012C   26154.20614582  .00096678  00000+0  61038-3 0  9995
2 28222  97.7100 228.2705 0008228 345.2948  14.8076 15.76297464217695
SL-16 R/B               
1 28353U 04021B   26154.16032921 -.00000064  00000+0 -87263-5 0  9992
2 28353  71.0025  53.1264 0007444 270.4216  89.6054 14.14613320134926
CZ-4B R/B               
1 28415U 04035C   26154.92607891  .00009094  00000+0  30703-3 0  9999
2 28415  97.3370 188.1504 0031531  25.5409 334.7382 15.30418837193098
CZ-2C R/B               
1 28480U 04046B   26154.58885808  .00000131  00000+0  64405-4 0  9991
2 28480  98.1954  64.2182 0138081 260.7834  97.7708 14.27023464120750
ARIANE 5 R/B            
1 28499U 04049H   26154.45605621  .00000980  00000+0  11357-3 0  9992
2 28499  98.2712 326.1796 0085172  73.4302 287.6245 14.85427918158523
CZ-2D R/B               
1 28738U 05024B   26154.56936407  .00057097  00000+0  51381-3 0  9995
2 28738  97.3489 173.3334 0005475  82.5669 277.6214 15.68034158153202
ALOS (DAICHI)           
1 28931U 06002A   26154.47725399  .00001292  00000+0  22359-3 0  9992
2 28931  98.1317 110.0882 0001949  66.5331 293.6079 14.70020825 86088
