OBJECT_NAME,OBJECT_ID,EPOCH,MEAN_MOTION,ECCENTRICITY,INCLINATION,RA_OF_ASC_NODE,ARG_OF_PERICENTER,MEAN_ANOMALY,EPHEMERIS_TYPE,CLASSIFICATION_TYPE,NORAD_CAT_ID,ELEMENT_SET_NO,REV_AT_EPOCH,BSTAR,MEAN_MOTION_DOT,MEAN_MOTION_DDOT
SL-16 R/B,1994-077B,2026-06-03T11:34:57.898848,14.15575573,.0002406,70.9811,171.9949,336.6536,23.4477,0,U,23405,999,62837,-.93961E-4,-.232E-5,0
ARIANE 40+ R/B,1995-021B,2026-06-03T15:40:48.711648,14.39825550,.00057077,98.4413,224.9233,238.3147,240.4022,0,U,23561,999,63161,.11110555E-3,.305E-5,0
SL-16 R/B,1995-058B,2026-06-03T15:14:30.783264,14.15506327,.00131915,71.0220,359.8132,338.7041,21.3531,0,U,23705,999,58001,-.1063323E-3,-.256E-5,0
SL-16 R/B,1996-051B,2026-06-03T15:30:51.661728,14.12441490,.00142924,70.7634,353.3077,357.7856,2.3198,0,U,24298,999,53378,.10370975E-3,.142E-5,0
ORBVIEW 2 (SEASTAR),1997-037A,2026-06-02T07:31:17.751360,14.35545182,.0002661,98.8676,319.9213,147.3172,212.8178,0,U,24883,999,52061,.12218E-3,.305E-5,0
SL-16 R/B,1998-043G,2026-06-03T11:17:52.371456,14.26066141,.00107658,98.8359,108.5125,122.3726,237.8497,0,U,25400,999,45121,.43380779E-4,.58E-6,0
SL-16 R/B,1998-045B,2026-06-03T14:29:32.665920,14.16203048,.00095188,71.0121,0.8970,257.0909,102.9152,0,U,25407,999,43926,.15697233E-3,.263E-5,0
ISS (ZARYA),1998-067A,2026-06-03T17:01:40.101024,15.49585865,.00070894,51.6330,6.8180,128.9940,231.1681,0,U,25544,999,56966,.16154302E-3,.8646E-4,0
CZ-4B R/B,1999-025C,2026-06-03T14:29:09.892608,14.18281041,.00382617,98.6490,196.7833,97.6073,17.8789,0,U,25732,999,40034,.56936154E-4,.75E-6,0
OKEAN-O,1999-039A,2026-06-03T15:03:13.308768,14.80449753,.00019009,97.9321,213.5801,83.1814,276.9614,0,U,25860,999,44710,.98371209E-4,.7E-5,0
SL-16 R/B,1999-039B,2026-06-03T19:07:15.011328,14.81831243,.00142866,97.9843,213.6972,343.4134,16.6609,0,U,25861,999,44961,.79973313E-4,.579E-5,0
DELTA 2 R/B,1999-041E,2026-06-03T14:03:24.346944,14.11990327,.0501109,51.7657,318.1284,241.8141,113.1319,0,U,25876,999,37516,.15610269E-3,.736E-5,0
HELIOS 1B,1999-064A,2026-06-03T14:16:47.136864,14.87968144,.00022527,98.1625,59.3409,109.8238,250.3220,0,U,25977,999,69803,.18901629E-3,.1675E-4,0
TERRA,1999-068A,2026-06-03T20:49:18.986304,14.61091990,.00008041,97.9462,204.9413,267.2150,147.1978,0,U,25994,999,40766,.98708714E-4,.441E-5,0
SL-16 R/B,2000-006B,2026-06-03T15:23:50.523072,14.15837347,.00148364,71.0033,277.1057,45.0794,315.1530,0,U,26070,999,36072,.17309973E-4,-.14E-6,0
TITAN 4B R/B,2000-047B,2026-06-03T21:07:22.686816,15.10115743,.00453714,67.9871,158.0274,300.5363,59.1312,0,U,26474,999,40592,.20636122E-3,.3314E-4,0
ENVISAT,2002-009A,2026-06-03T11:48:33.825024,14.39061394,.00013312,98.3829,106.1165,92.0435,19.9609,0,U,27386,999,27151,.49997679E-4,.112E-5,0
IDEFIX & ARIANE 42P R/B,2002-021B,2026-06-03T10:13:07.671936,14.31075278,.00107528,98.5941,92.0582,298.8139,61.1964,0,U,27422,999,25628,.1180933E-3,.267E-5,0
AQUA,2002-022A,2026-06-03T20:26:08.216736,14.62136463,.00016221,98.4270,123.8686,57.2494,29.5609,0,U,27424,999,28132,.1888727E-3,.9E-5,0
CZ-4B R/B,2002-024C,2026-06-03T14:24:52.710912,14.14562167,.00509155,98.8705,207.5080,138.1059,342.4620,0,U,27432,999,24138,.50610592E-4,.54E-6,0
MIDORI II (ADEOS-II),2002-056A,2026-06-03T11:42:19.052928,14.29341638,.0002177,98.7872,113.6317,96.1451,263.9978,0,U,27597,999,22255,.14226E-3,.317E-5,0
H-2A R/B,2002-056E,2026-06-03T11:35:20.537376,14.33815770,.00688353,98.3306,111.6572,266.0531,202.3504,0,U,27601,999,22640,.10004215E-3,.243E-5,0
CZ-4B R/B,2003-049C,2026-06-03T14:47:02.400864,14.55090366,.00475034,98.6894,152.9224,330.8112,29.0430,0,U,28059,999,19909,.96037238E-4,.368E-5,0
CZ-2C R/B,2004-012C,2026-06-03T04:56:50.998848,15.76297464,.0008228,97.7100,228.2705,345.2948,14.8076,0,U,28222,999,21769,.61038E-3,.96678E-3,0
SL-16 R/B,2004-021B,2026-06-03T03:50:52.443744,14.14613320,.0007444,71.0025,53.1264,270.4216,89.6054,0,U,28353,999,13492,-.8726317E-5,-.64E-6,0
CZ-4B R/B,2004-035C,2026-06-03T22:13:33.217824,15.30418837,.00315316,97.3370,188.1504,25.5409,334.7382,0,U,28415,999,19309,.3070303E-3,.9094E-4,0
CZ-2C R/B,2004-046B,2026-06-03T14:07:57.338112,14.27023464,.0138081,98.1954,64.2182,260.7834,97.7708,0,U,28480,999,12075,.64405396E-4,.131E-5,0
ARIANE 5 R/B,2004-049H,2026-06-03T10:56:43.256544,14.85427918,.00851724,98.2712,326.1796,73.4302,287.6245,0,U,28499,999,15852,.11357091E-3,.98E-5,0
CZ-2D R/B,2005-024B,2026-06-03T13:39:53.055648,15.68034158,.00054754,97.3489,173.3334,82.5669,277.6214,0,U,28738,999,15320,.51380993E-3,.57097E-3,0
ALOS (DAICHI),2006-002A,2026-06-03T11:27:14.744736,14.70020825,.0001949,98.1317,110.0882,66.5331,293.6079,0,U,28931,999,8608,.22358505E-3,.1292E-4,0
